{"type":"Feature","properties":{"name":"Seine","source":"Natural Earth 10m rivers_lake_centerlines","licence":"Public domain (CC0)","extrait_le":"2026-08-31"},"geometry":{"type":"MultiLineString","coordinates":[[[4.712657,47.512641],[4.704112,47.526964],[4.700857,47.540961],[4.704763,47.554511],[4.705333,47.571804],[4.707693,47.577908],[4.704519,47.585313],[4.697439,47.59162],[4.690359,47.599677],[4.687185,47.612616],[4.687022,47.63585],[4.685313,47.644355],[4.673595,47.678575],[4.667491,47.684394],[4.653005,47.691189],[4.623057,47.697618],[4.610362,47.703315],[4.605235,47.714708],[4.59962,47.741034],[4.585216,47.763007],[4.565196,47.780585],[4.543142,47.793565],[4.54656,47.805854],[4.56365,47.834499],[4.570486,47.852607],[4.576182,47.862576],[4.584727,47.869249],[4.566173,47.868923],[4.552989,47.875434],[4.543712,47.885769],[4.536876,47.896593],[4.542898,47.899441],[4.545665,47.902615],[4.547618,47.906195],[4.550548,47.910224],[4.536062,47.919949],[4.50587,47.958075],[4.505544,47.966864],[4.49171,47.985785],[4.475352,48.003689],[4.467459,48.009304],[4.453543,48.027045],[4.392589,48.062038],[4.378673,48.092108],[4.378673,48.112901],[4.375906,48.123074],[4.365977,48.12873],[4.344656,48.136176],[4.335623,48.140815],[4.330496,48.145209],[4.324474,48.148505],[4.313487,48.149848],[4.284353,48.148464],[4.275645,48.149848],[4.182791,48.212592],[4.159597,48.211859],[4.152843,48.226142],[4.14503,48.239081],[4.134288,48.25019],[4.125499,48.259101],[4.111827,48.275214],[4.084483,48.324897],[4.067068,48.335395],[4.043386,48.342882],[4.0053,48.375759],[3.977306,48.391913],[3.94044,48.444648],[3.913259,48.472357],[3.903738,48.487128],[3.905772,48.499294],[3.872813,48.521674],[3.831065,48.528754],[3.787283,48.531317],[3.748057,48.540229],[3.743337,48.54446],[3.730968,48.560736],[3.726573,48.562934],[3.720876,48.56684],[3.715994,48.568671],[3.713878,48.56448],[3.711843,48.562079],[3.70696,48.558702],[3.701182,48.555772],[3.696951,48.554511],[3.676524,48.553168],[3.65504,48.548774],[3.635671,48.541287],[3.621349,48.530341],[3.608165,48.523017],[3.588878,48.520535],[3.550059,48.519802],[3.543875,48.52204],[3.537039,48.52619],[3.531261,48.526313],[3.528982,48.516669],[3.524832,48.512152],[3.504893,48.50141],[3.498546,48.499294],[3.488943,48.498358],[3.476003,48.493964],[3.46754,48.492458],[3.461599,48.492743],[3.455984,48.493679],[3.449229,48.493964],[3.440196,48.492458],[3.43922,48.489936],[3.419119,48.472602],[3.409841,48.469265],[3.402029,48.469428],[3.396007,48.467556],[3.392345,48.458319],[3.384939,48.458319],[3.370779,48.465847],[3.350271,48.466905],[3.331554,48.461127],[3.323497,48.448065],[3.314626,48.439317],[3.293875,48.431708],[3.254649,48.42414],[3.210216,48.433417],[3.187266,48.435736],[3.168956,48.427924],[3.15447,48.418036],[3.11321,48.40115],[3.096934,48.396837],[3.074718,48.395616],[3.012218,48.403673],[2.863048,48.381619],[2.851085,48.386908],[2.846934,48.391303],[2.826834,48.401679],[2.820079,48.403673],[2.815115,48.402655],[2.805675,48.397976],[2.799734,48.396837],[2.795909,48.399848],[2.796397,48.406562],[2.797781,48.41352],[2.79656,48.417344],[2.78297,48.418728],[2.768565,48.417751],[2.75587,48.41828],[2.747488,48.42414],[2.745779,48.437079],[2.752696,48.447455],[2.76238,48.456366],[2.767996,48.465155],[2.761729,48.483995],[2.739268,48.487738],[2.710867,48.487087],[2.686697,48.492458],[2.677989,48.502143],[2.677013,48.512234],[2.677419,48.522895],[2.671804,48.534003],[2.66033,48.540351],[2.649669,48.537665],[2.631358,48.526638],[2.614268,48.52322],[2.604991,48.524359],[2.583018,48.534003],[2.54713,48.542426],[2.535167,48.547065],[2.535167,48.554511],[2.54835,48.561062],[2.544119,48.566718],[2.515391,48.575019],[2.49171,48.575873],[2.488536,48.582831],[2.488048,48.605414],[2.475759,48.629462],[2.447276,48.652289],[2.391856,48.684882],[2.426036,48.714911],[2.440929,48.731513],[2.443126,48.742947],[2.427745,48.756781],[2.422048,48.763699],[2.419688,48.770819],[2.420339,48.791775],[2.418224,48.796739],[2.412283,48.807807],[2.39088,48.833848],[2.358816,48.855414],[2.32252,48.866807],[2.288829,48.862372],[2.254812,48.838487],[2.235362,48.833808],[2.226817,48.85281],[2.233165,48.869086],[2.248464,48.886257],[2.266612,48.90115],[2.281993,48.910834],[2.319102,48.923448],[2.327322,48.930732],[2.329845,48.94831],[2.318858,48.958116],[2.294688,48.956732],[2.254649,48.944892],[2.229259,48.92829],[2.213878,48.920762],[2.1963,48.91767],[2.183767,48.912909],[2.162852,48.890489],[2.151622,48.88288],[2.124929,48.886176],[2.121755,48.910712],[2.136241,48.938544],[2.166515,48.954128],[2.172293,48.960028],[2.177013,48.967841],[2.178966,48.975653],[2.177419,48.984971],[2.173106,48.988593],[2.166677,48.990058],[2.145274,48.997178],[2.093272,49.00019],[2.072765,48.995185],[2.060964,48.982978],[2.041759,48.951768],[2.024425,48.942816],[2.008311,48.946641],[2.000255,48.959825],[2.007742,48.979071],[1.990001,49.00141],[1.977957,49.009548],[1.95989,49.013861],[1.941091,49.013617],[1.813894,48.981269],[1.798839,48.979315],[1.764659,48.979071],[1.75115,48.982245],[1.733897,48.990058],[1.719168,49.000108],[1.71282,49.010077],[1.704031,49.013536],[1.647878,49.013861],[1.619314,49.020209],[1.636892,49.035509],[1.699148,49.069037],[1.674734,49.076361],[1.653494,49.078192],[1.633067,49.073594],[1.589122,49.047471],[1.577566,49.042833],[1.562022,49.041124],[1.547048,49.046413],[1.534841,49.057929],[1.525157,49.069403],[1.513845,49.07746],[1.509695,49.09101],[1.507335,49.095771],[1.501964,49.097846],[1.485525,49.100531],[1.479421,49.102607],[1.457042,49.126166],[1.448985,49.12995],[1.438975,49.133002],[1.432058,49.140326],[1.425955,49.149359],[1.41863,49.157172],[1.387136,49.174262],[1.384451,49.17829],[1.358816,49.183295],[1.346446,49.197537],[1.350597,49.212429],[1.374278,49.219306],[1.389903,49.226426],[1.389659,49.241156],[1.375499,49.253445],[1.349783,49.253445],[1.333425,49.244574],[1.295584,49.218044],[1.278575,49.21247],[1.26824,49.213568],[1.243907,49.219306],[1.232839,49.223497],[1.235281,49.232856],[1.242849,49.242255],[1.247325,49.246609],[1.253835,49.256415],[1.258718,49.260362],[1.261241,49.265815],[1.260183,49.291693],[1.258718,49.300482],[1.253917,49.306098],[1.088552,49.314643],[1.034679,49.29739],[1.006277,49.294542],[0.993419,49.308051],[1.003347,49.319403],[1.026378,49.327989],[1.052745,49.333441],[1.092459,49.336859],[1.108572,49.342882],[1.119314,49.355333],[1.12379,49.376288],[1.114757,49.411933],[1.089773,49.440009],[1.056163,49.449978],[1.021414,49.430935],[1.000662,49.372016],[0.990001,49.362657],[0.952322,49.356228],[0.933035,49.357489],[0.917735,49.370144],[0.913585,49.388739],[0.9192,49.40766],[0.927664,49.427436],[0.932058,49.448594],[0.929128,49.472846],[0.920095,49.486151],[0.90504,49.490058],[0.873953,49.483588],[0.866628,49.480984],[0.86085,49.475857],[0.856212,49.465684],[0.857188,49.458441],[0.866628,49.430935],[0.872325,49.425605],[0.867931,49.41413],[0.860362,49.40351],[0.856212,49.400499],[0.851003,49.394395],[0.839285,49.399034],[0.811534,49.42003],[0.809011,49.426215],[0.808523,49.438341],[0.820242,49.455756],[0.82488,49.467353],[0.819347,49.47252],[0.813894,49.474677],[0.799978,49.484076],[0.780284,49.488878],[0.778005,49.495714],[0.77825,49.504584],[0.774343,49.513495],[0.759695,49.522081],[0.739919,49.526068],[0.695486,49.527167],[0.681163,49.519599],[0.671641,49.501899],[0.658376,49.465684],[0.647634,49.45307],[0.6338,49.444607],[0.615896,49.439887],[0.592459,49.438341],[0.572927,49.444037],[0.540212,49.473171],[0.520437,49.486151],[0.508067,49.492051],[0.501882,49.493598],[0.493175,49.493598]]]}}